[{"OBJECT_NAME":"STARLINK-36400","OBJECT_ID":"2026-016Q","EPOCH":"2026-03-09T16:40:42.721824","MEAN_MOTION":15.75208535,"ECCENTRICITY":0.00019292,"INCLINATION":97.2822,"RA_OF_ASC_NODE":129.1724,"ARG_OF_PERICENTER":72.7962,"MEAN_ANOMALY":287.3514,"EPHEMERIS_TYPE":0,"CLASSIFICATION_TYPE":"U","NORAD_CAT_ID":67575,"ELEMENT_SET_NO":999,"REV_AT_EPOCH":680,"BSTAR":0.0014848132,"MEAN_MOTION_DOT":0.00227527,"MEAN_MOTION_DDOT":0},{"OBJECT_NAME":"CZ-2F DEB","OBJECT_ID":"2026-024F","EPOCH":"2026-03-09T08:22:27.145056","MEAN_MOTION":15.03733997,"ECCENTRICITY":0.03102592,"INCLINATION":49.7935,"RA_OF_ASC_NODE":23.5997,"ARG_OF_PERICENTER":270.0739,"MEAN_ANOMALY":86.4659,"EPHEMERIS_TYPE":0,"CLASSIFICATION_TYPE":"U","NORAD_CAT_ID":67719,"ELEMENT_SET_NO":999,"REV_AT_EPOCH":419,"BSTAR":0.0038997444,"MEAN_MOTION_DOT":0.00165167,"MEAN_MOTION_DDOT":0}]
